start=new Date('2022-11-24T00:00:00.000Z').valueOf();
sats=[{"OBJECT_ID":"2021-012P","ECCENTRICITY":"0.00013870","MEAN_ANOMALY":"281.9492","TIME_SYSTEM":"UTC","OBJECT_NAME":"STARLINK-2009","PERIOD":"95.593","DECAY_DATE":null,"CENTER_NAME":"EARTH","MEAN_MOTION_DDOT":"0.0000000000000","REV_AT_EPOCH":"9884","SEMIMAJOR_AXIS":"6925.381","TLE_LINE2":"2 47633  53.0564  67.3524 0001387  78.1652 281.9492 15.06389467 98846","MEAN_MOTION_DOT":"0.00001158","MEAN_MOTION":"15.06389467","EPOCH":"2022-11-23T18:05:25.091232","FILE":"3668355","CLASSIFICATION_TYPE":"U","REF_FRAME":"TEME","GP_ID":"218600347","EPHEMERIS_TYPE":"0","RA_OF_ASC_NODE":"67.3524","OBJECT_TYPE":"PAYLOAD","ELEMENT_SET_NO":"999","PERIAPSIS":"546.285","MEAN_ELEMENT_THEORY":"SGP4","TLE_LINE1":"1 47633U 21012P   22327.75376263  .00001158  00000-0  96620-4 0  9996","APOAPSIS":"548.206","SITE":"AFETR","LAUNCH_DATE":"2021-02-16","INCLINATION":"53.0564","ARG_OF_PERICENTER":"78.1652","BSTAR":"0.00009662000000","COUNTRY_CODE":"US","NORAD_CAT_ID":"47633","RCS_SIZE":"LARGE"},{"INCLINATION":"53.0592","ARG_OF_PERICENTER":"88.1277","LAUNCH_DATE":"2021-02-16","COUNTRY_CODE":"US","BSTAR":"0.00002654300000","NORAD_CAT_ID":"47634","RCS_SIZE":"LARGE","PERIAPSIS":"546.351","ELEMENT_SET_NO":"999","SITE":"AFETR","APOAPSIS":"548.114","TLE_LINE1":"1 47634U 21012Q   22327.26447041  .00000114  00000-0  26543-4 0  9994","MEAN_ELEMENT_THEORY":"SGP4","SEMIMAJOR_AXIS":"6925.368","TLE_LINE2":"2 47634  53.0592  69.5245 0001273  88.1277 271.9858 15.06393800 98740","EPOCH":"2022-11-23T06:20:50.243424","MEAN_MOTION":"15.06393800","MEAN_MOTION_DOT":"0.00000114","REF_FRAME":"TEME","GP_ID":"218543134","EPHEMERIS_TYPE":"0","RA_OF_ASC_NODE":"69.5245","FILE":"3668134","CLASSIFICATION_TYPE":"U","OBJECT_TYPE":"PAYLOAD","MEAN_ANOMALY":"271.9858","ECCENTRICITY":"0.00012730","OBJECT_NAME":"STARLINK-2010","TIME_SYSTEM":"UTC","OBJECT_ID":"2021-012Q","PERIOD":"95.593","DECAY_DATE":null,"CENTER_NAME":"EARTH","MEAN_MOTION_DDOT":"0.0000000000000","REV_AT_EPOCH":"9874"},{"SITE":"AFETR","TLE_LINE1":"1 47635U 21012R   22327.75423843  .00002625  00000-0  19508-3 0  9994","APOAPSIS":"548.604","MEAN_ELEMENT_THEORY":"SGP4","ELEMENT_SET_NO":"999","PERIAPSIS":"545.810","NORAD_CAT_ID":"47635","RCS_SIZE":"LARGE","INCLINATION":"53.0550","ARG_OF_PERICENTER":"47.6551","LAUNCH_DATE":"2021-02-16","COUNTRY_CODE":"US","BSTAR":"0.00019508000000","CENTER_NAME":"EARTH","DECAY_DATE":null,"MEAN_MOTION_DDOT":"0.0000000000000","REV_AT_EPOCH":"10015","ECCENTRICITY":"0.00020170","MEAN_ANOMALY":"312.4608","OBJECT_NAME":"STARLINK-2012","TIME_SYSTEM":"UTC","OBJECT_ID":"2021-012R","PERIOD":"95.592","REF_FRAME":"TEME","GP_ID":"218599853","EPHEMERIS_TYPE":"0","RA_OF_ASC_NODE":"332.3266","FILE":"3668355","CLASSIFICATION_TYPE":"U","OBJECT_TYPE":"PAYLOAD","SEMIMAJOR_AXIS":"6925.342","TLE_LINE2":"2 47635  53.0550 332.3266 0002017  47.6551 312.4608 15.06402066100159","EPOCH":"2022-11-23T18:06:06.200352","MEAN_MOTION_DOT":"0.00002625","MEAN_MOTION":"15.06402066"},{"OBJECT_TYPE":"PAYLOAD","GP_ID":"218600104","RA_OF_ASC_NODE":"47.5042","EPHEMERIS_TYPE":"0","REF_FRAME":"TEME","CLASSIFICATION_TYPE":"U","FILE":"3668355","EPOCH":"2022-11-23T17:11:02.454432","MEAN_MOTION_DOT":"-0.00001788","MEAN_MOTION":"15.06398277","TLE_LINE2":"2 47636  53.0555  47.5042 0001559  83.0617 277.0549 15.06398277 99097","SEMIMAJOR_AXIS":"6925.354","REV_AT_EPOCH":"9909","MEAN_MOTION_DDOT":"0.0000000000000","CENTER_NAME":"EARTH","DECAY_DATE":null,"PERIOD":"95.592","TIME_SYSTEM":"UTC","OBJECT_NAME":"STARLINK-2013","MEAN_ANOMALY":"277.0549","ECCENTRICITY":"0.00015590","OBJECT_ID":"2021-012S","RCS_SIZE":"LARGE","NORAD_CAT_ID":"47636","COUNTRY_CODE":"US","BSTAR":"-0.00010118000000","ARG_OF_PERICENTER":"83.0617","INCLINATION":"53.0555","LAUNCH_DATE":"2021-02-16","SITE":"AFETR","TLE_LINE1":"1 47636U 21012S   22327.71600063 -.00001788  00000-0 -10118-3 0  9991","APOAPSIS":"548.299","MEAN_ELEMENT_THEORY":"SGP4","PERIAPSIS":"546.139","ELEMENT_SET_NO":"999"},{"OBJECT_ID":"2021-012T","TIME_SYSTEM":"UTC","OBJECT_NAME":"STARLINK-2014","MEAN_ANOMALY":"283.4625","ECCENTRICITY":"0.00013790","PERIOD":"95.592","MEAN_MOTION_DDOT":"0.0000000000000","CENTER_NAME":"EARTH","DECAY_DATE":null,"REV_AT_EPOCH":"9909","TLE_LINE2":"2 47637  53.0552  47.9230 0001379  76.6518 283.4625 15.06401812 99092","SEMIMAJOR_AXIS":"6925.343","MEAN_MOTION_DOT":"0.00001500","MEAN_MOTION":"15.06401812","EPOCH":"2022-11-23T14:53:01.873248","CLASSIFICATION_TYPE":"U","FILE":"3668355","GP_ID":"218600848","RA_OF_ASC_NODE":"47.9230","EPHEMERIS_TYPE":"0","REF_FRAME":"TEME","OBJECT_TYPE":"PAYLOAD","PERIAPSIS":"546.253","ELEMENT_SET_NO":"999","APOAPSIS":"548.163","TLE_LINE1":"1 47637U 21012T   22327.62016057  .00001500  00000-0  11959-3 0  9990","MEAN_ELEMENT_THEORY":"SGP4","SITE":"AFETR","LAUNCH_DATE":"2021-02-16","ARG_OF_PERICENTER":"76.6518","INCLINATION":"53.0552","BSTAR":"0.00011959000000","COUNTRY_CODE":"US","RCS_SIZE":"LARGE","NORAD_CAT_ID":"47637"},{"SITE":"AFETR","TLE_LINE1":"1 47638U 21012U   22327.75055472  .00000013  00000-0  19768-4 0  9994","MEAN_ELEMENT_THEORY":"SGP4","APOAPSIS":"548.460","ELEMENT_SET_NO":"999","PERIAPSIS":"545.987","RCS_SIZE":"LARGE","NORAD_CAT_ID":"47638","COUNTRY_CODE":"US","BSTAR":"0.00001976800000","ARG_OF_PERICENTER":"66.7004","INCLINATION":"53.0565","LAUNCH_DATE":"2021-02-16","REV_AT_EPOCH":"10013","MEAN_MOTION_DDOT":"0.0000000000000","DECAY_DATE":null,"CENTER_NAME":"EARTH","PERIOD":"95.592","OBJECT_NAME":"STARLINK-2015","TIME_SYSTEM":"UTC","MEAN_ANOMALY":"293.4173","ECCENTRICITY":"0.00017860","OBJECT_ID":"2021-012U","OBJECT_TYPE":"PAYLOAD","EPHEMERIS_TYPE":"0","GP_ID":"218599103","RA_OF_ASC_NODE":"332.3236","REF_FRAME":"TEME","CLASSIFICATION_TYPE":"U","FILE":"3668355","EPOCH":"2022-11-23T18:00:47.927808","MEAN_MOTION_DOT":"0.00000013","MEAN_MOTION":"15.06396763","TLE_LINE2":"2 47638  53.0565 332.3236 0001786  66.7004 293.4173 15.06396763100131","SEMIMAJOR_AXIS":"6925.358"},{"PERIOD":"95.593","TIME_SYSTEM":"UTC","OBJECT_NAME":"STARLINK-2016","MEAN_ANOMALY":"294.4516","ECCENTRICITY":"0.00015210","OBJECT_ID":"2021-012V","REV_AT_EPOCH":"9905","MEAN_MOTION_DDOT":"0.0000000000000","DECAY_DATE":null,"CENTER_NAME":"EARTH","EPOCH":"2022-11-23T12:45:39.339648","MEAN_MOTION_DOT":"-0.00000636","MEAN_MOTION":"15.06388667","TLE_LINE2":"2 47639  53.0553  48.3309 0001521  65.6632 294.4516 15.06388667 99050","SEMIMAJOR_AXIS":"6925.383","OBJECT_TYPE":"PAYLOAD","GP_ID":"218542405","EPHEMERIS_TYPE":"0","RA_OF_ASC_NODE":"48.3309","REF_FRAME":"TEME","CLASSIFICATION_TYPE":"U","FILE":"3668134","ELEMENT_SET_NO":"999","PERIAPSIS":"546.195","SITE":"AFETR","TLE_LINE1":"1 47639U 21012V   22327.53170532 -.00000636  00000-0 -23828-4 0  9991","MEAN_ELEMENT_THEORY":"SGP4","APOAPSIS":"548.302","COUNTRY_CODE":"US","BSTAR":"-0.00002382800000","ARG_OF_PERICENTER":"65.6632","INCLINATION":"53.0553","LAUNCH_DATE":"2021-02-16","RCS_SIZE":"LARGE","NORAD_CAT_ID":"47639"},{"DECAY_DATE":null,"CENTER_NAME":"EARTH","MEAN_MOTION_DDOT":"0.0000000000000","REV_AT_EPOCH":"9878","MEAN_ANOMALY":"289.2592","ECCENTRICITY":"0.00013220","OBJECT_NAME":"STARLINK-2018","TIME_SYSTEM":"UTC","OBJECT_ID":"2021-012W","PERIOD":"95.592","REF_FRAME":"TEME","GP_ID":"218542655","EPHEMERIS_TYPE":"0","RA_OF_ASC_NODE":"68.6384","FILE":"3668134","CLASSIFICATION_TYPE":"U","OBJECT_TYPE":"PAYLOAD","SEMIMAJOR_AXIS":"6925.351","TLE_LINE2":"2 47640  53.0569  68.6384 0001322  70.8540 289.2592 15.06399052 98787","EPOCH":"2022-11-23T11:02:08.827296","MEAN_MOTION_DOT":"0.00000758","MEAN_MOTION":"15.06399052","SITE":"AFETR","TLE_LINE1":"1 47640U 21012W   22327.45982439  .00000758  00000-0  69755-4 0  9993","MEAN_ELEMENT_THEORY":"SGP4","APOAPSIS":"548.132","ELEMENT_SET_NO":"999","PERIAPSIS":"546.301","NORAD_CAT_ID":"47640","RCS_SIZE":"LARGE","INCLINATION":"53.0569","ARG_OF_PERICENTER":"70.8540","LAUNCH_DATE":"2021-02-16","COUNTRY_CODE":"US","BSTAR":"0.00006975500000"},{"RCS_SIZE":"LARGE","NORAD_CAT_ID":"47641","BSTAR":"0.00001387300000","COUNTRY_CODE":"US","LAUNCH_DATE":"2021-02-16","ARG_OF_PERICENTER":"56.9153","INCLINATION":"53.0552","TLE_LINE1":"1 47641U 21012X   22327.73581678 -.00000075  00000-0  13873-4 0  9998","MEAN_ELEMENT_THEORY":"SGP4","APOAPSIS":"548.655","SITE":"AFETR","ELEMENT_SET_NO":"999","PERIAPSIS":"545.824","OBJECT_TYPE":"PAYLOAD","CLASSIFICATION_TYPE":"U","FILE":"3668355","GP_ID":"218600348","EPHEMERIS_TYPE":"0","RA_OF_ASC_NODE":"332.4045","REF_FRAME":"TEME","MEAN_MOTION":"15.06391647","MEAN_MOTION_DOT":"-0.00000075","EPOCH":"2022-11-23T17:39:34.569792","TLE_LINE2":"2 47641  53.0552 332.4045 0002044  56.9153 303.2032 15.06391647100134","SEMIMAJOR_AXIS":"6925.374","REV_AT_EPOCH":"10013","MEAN_MOTION_DDOT":"0.0000000000000","DECAY_DATE":null,"CENTER_NAME":"EARTH","PERIOD":"95.593","OBJECT_ID":"2021-012X","TIME_SYSTEM":"UTC","OBJECT_NAME":"STARLINK-2019","MEAN_ANOMALY":"303.2032","ECCENTRICITY":"0.00020440"},{"SEMIMAJOR_AXIS":"6925.350","TLE_LINE2":"2 47642  53.0560  63.3016 0001268 105.9619 254.1510 15.06399453 98854","EPOCH":"2022-11-23T12:46:18.154848","MEAN_MOTION_DOT":"0.00001037","MEAN_MOTION":"15.06399453","REF_FRAME":"TEME","GP_ID":"218543135","EPHEMERIS_TYPE":"0","RA_OF_ASC_NODE":"63.3016","FILE":"3668134","CLASSIFICATION_TYPE":"U","OBJECT_TYPE":"PAYLOAD","ECCENTRICITY":"0.00012680","MEAN_ANOMALY":"254.1510","TIME_SYSTEM":"UTC","OBJECT_NAME":"STARLINK-2020","OBJECT_ID":"2021-012Y","PERIOD":"95.592","DECAY_DATE":null,"CENTER_NAME":"EARTH","MEAN_MOTION_DDOT":"0.0000000000000","REV_AT_EPOCH":"9885","INCLINATION":"53.0560","ARG_OF_PERICENTER":"105.9619","LAUNCH_DATE":"2021-02-16","COUNTRY_CODE":"US","BSTAR":"0.00008847300000","NORAD_CAT_ID":"47642","RCS_SIZE":"LARGE","ELEMENT_SET_NO":"999","PERIAPSIS":"546.337","SITE":"AFETR","MEAN_ELEMENT_THEORY":"SGP4","TLE_LINE1":"1 47642U 21012Y   22327.53215457  .00001037  00000-0  88473-4 0  9992","APOAPSIS":"548.093"}];
